satname,norad_id,inclination_deg,eccentricity,mean_motion_rev_per_day,perigee_km,apogee_km,l1,l2
STARLINK-1234,45190,53.0409,0.0006101,15.72099768,348.79020976019547,357.0034172194155,1 45190U 20012N   26143.87138388  .00057170  00000+0  42809-3 0  9991,2 45190  53.0409 314.7184 0006101 180.0050 180.0968 15.72099768347675
STARLINK-1269,45197,53.1578,0.0003131,15.33502027,463.2308043662233,467.51621064602386,1 45197U 20012V   26143.74251641  .00031259  00000+0  95916-3 0  9999,2 45197  53.1578  50.4018 0003131  81.2818 278.8539 15.33502027346419
STARLINK-1154,45198,53.0427,6.54e-05,15.62309633,380.5452703660303,381.4293638267063,1 45198U 20012W   26143.91668980  .00101301  00000+0  11175-2 0  9997,2 45198  53.0427   7.7670 0000654  71.3184  86.6413 15.62309633  5928
STARLINK-1199,45201,53.1574,0.0002531,15.33479223,463.7092431206538,467.1734624828414,1 45201U 20012Z   26143.84359358  .00031949  00000+0  98072-3 0  9992,2 45201  53.1574  34.1947 0002531 133.7277 226.3935 15.33479223346673
STARLINK-1209,45206,53.0404,0.0009227,15.63866162,370.2691259467083,382.7341360763785,1 45206U 20012AE  26143.80544022  .00102446  00000+0  10613-2 0  9992,2 45206  53.0404 328.7372 0009227 172.2419 187.8739 15.63866162346621
STARLINK-1231,45212,53.0389,0.0003744,15.26715834,483.0681430705672,488.20773774594636,1 45212U 20012AL  26143.82500144  .00020576  00000+0  78363-3 0  9998,2 45212  53.0389  29.0278 0003744  57.0989 303.0368 15.26715834346680
STARLINK-1271,45217,53.1577,0.0002176,15.33610905,463.56052501733484,466.5386798267091,1 45217U 20012AR  26143.84289721  .00033259  00000+0  10161-2 0  9993,2 45217  53.1577  34.3376 0002176 119.5730 240.5489 15.33610905346678
STARLINK-1191,45222,53.1559,0.0004189,15.37369285,451.03016992964785,456.75404391542907,1 45222U 20012AW  26143.86106867  .00037575  00000+0  10163-2 0  9997,2 45222  53.1559   7.6754 0004189 136.2449 223.8888 15.37369285347052
STARLINK-1212,45223,53.0414,0.0003659,15.65384556,369.6630846088374,374.602932200989,1 45223U 20012AX  26143.83595238  .00042160  00000+0  41819-3 0  9998,2 45223  53.0414 344.3365 0003659 103.8426 256.2996 15.65384556347360
STARLINK-1215,45225,53.1581,0.0002304,15.33717,463.1574159701322,466.3106109331311,1 45225U 20012AZ  26143.84298411  .00031001  00000+0  94499-3 0  9998,2 45225  53.1581   8.6164 0002304 160.2648 199.8444 15.33717000346991
STARLINK-1221,45227,53.0644,0.0001823,15.44285931,432.2352737690826,434.7187882447879,1 45227U 20012BB  26143.64793237  .00013494  00000+0  29714-3 0  9998,2 45227  53.0644 273.7152 0001823 232.1515 127.9325 15.44285931348280
STARLINK-1222,45228,53.0541,0.0001074,15.53989004,404.3645442391553,405.8215820567193,1 45228U 20012BC  26143.84380228  .00011508  00000+0  18193-3 0  9996,2 45228  53.0541 341.2292 0001074 162.5738 197.5308 15.53989004347290
STARLINK-1226,45229,53.158,0.0002957,15.4216968,437.69108722203055,441.7231602368038,1 45229U 20012BD  26143.89145634  .00044584  00000+0  10276-2 0  9995,2 45229  53.1580   5.3583 0002957 152.7932 207.3229 15.42169680346989
STARLINK-1227,45230,53.1553,0.0003591,15.4228544,436.91780085307073,441.8141314833729,1 45230U 20012BE  26143.83759978  .00043172  00000+0  99164-3 0  9999,2 45230  53.1553   5.7351 0003591 150.7038 209.4170 15.42285440347092
STARLINK-1246,45235,53.1563,0.000316,15.33628781,462.8339959658297,467.158856291142,1 45235U 20012BK  26143.87981286  .00033083  00000+0  10102-2 0  9991,2 45235  53.1563  49.3935 0003160 128.3180 231.8107 15.33628781346492
STARLINK-1270,45237,53.0426,0.0003027,15.59271614,387.71528671839224,391.81257394161366,1 45237U 20012BM  26143.86239975  .00073463  00000+0  91541-3 0  9996,2 45237  53.0426 344.9973 0003027 137.6309 222.4937 15.59271614347355
STARLINK-1279,45360,53.0362,0.000902,15.72118148,346.7730054849626,358.91569584155786,1 45360U 20019A   26143.15041659  .00065313  00000+0  48697-3 0  9991,2 45360  53.0362  93.0866 0009020  58.7916 301.3985 15.72118148342330
STARLINK-1301,45361,53.037,0.000633,15.74484214,341.8428694657132,350.35575263550345,1 45361U 20019B   26143.84953556  .00063885  00000+0  43118-3 0  9991,2 45361  53.0370  92.5078 0006330  79.4990 280.6742 15.74484214342413
STARLINK-1262,45366,53.154,0.0003657,15.32564924,465.65922256530666,470.66660632273124,1 45366U 20019G   26143.38427591  .00026058  00000+0  82588-3 0  9995,2 45366  53.1540 178.0540 0003657  22.1943 337.9217 15.32564924341192
STARLINK-1273,45367,53.0444,0.0007324,15.5487776,397.5418448528362,407.47413363307896,1 45367U 20019H   26143.72638456  .00047075  00000+0  69510-3 0  9990,2 45367  53.0444 154.8289 0007324   5.9518 354.1578 15.54877760341537
STARLINK-1277,45369,53.0443,0.0006878,15.61264744,379.3517133634832,388.6537127527654,1 45369U 20019K   26143.74403084  .00070664  00000+0  81585-3 0  9997,2 45369  53.0443 149.5138 0006878 356.6374   3.4591 15.61264744341619
STARLINK-1281,45370,53.1566,0.0004862,15.33484143,462.09937424868076,468.75405560507625,1 45370U 20019L   26143.79624744  .00026577  00000+0  81803-3 0  9999,2 45370  53.1566 175.8544 0004862  20.8118 339.3081 15.33484143341260
STARLINK-1300,45374,53.1592,0.0004603,15.33901859,461.0347004522155,467.33374136818566,1 45374U 20019Q   26143.81266935  .00027072  00000+0  82212-3 0  9996,2 45374  53.1592 175.7285 0004603  36.0605 324.0707 15.33901859341261
STARLINK-1302,45375,53.045,0.0005511,15.65545267,367.951215456279,375.39085387208706,1 45375U 20019R   26143.71100677  .00034571  00000+0  34189-3 0  9998,2 45375  53.0450 146.1499 0005511  22.1628 337.9623 15.65545267341658
STARLINK-1304,45376,53.043,0.0006397,15.60563059,381.7025238474289,390.35659854582445,1 45376U 20019S   26143.73066694  .00064900  00000+0  77093-3 0  9991,2 45376  53.0430 146.8522 0006397  23.1074 337.0225 15.60563059341642
STARLINK-1305,45377,53.0376,0.0001709,15.69431667,359.3717135803927,361.6749876882395,1 45377U 20019T   26143.91668980 -.00008957  00000+0 -69951-4 0  9995,2 45377  53.0376 125.4390 0001709 127.2883 352.6962 15.69431667  5909
STARLINK-1319,45379,53.0389,0.0005066,15.74590618,342.39003318572486,349.20272248414676,1 45379U 20019V   26143.85283316  .00062857  00000+0  42259-3 0  9994,2 45379  53.0389 118.0700 0005066  42.7761 317.3651 15.74590618342066
STARLINK-1266,45383,53.0443,0.0001704,15.58909286,389.65914263839477,391.9660006524118,1 45383U 20019Z   26143.91668980  .01258274  00000+0  14463-1 0  9995,2 45383  53.0443 131.2043 0001704  98.6416 340.5911 15.58909286  5825
STARLINK-1267,45384,53.0442,0.0007505,15.62943619,374.0880137163167,384.23071555963816,1 45384U 20019AA  26143.67666941  .00075377  00000+0  81440-3 0  9995,2 45384  53.0442 123.5863 0007505  52.5883 307.5813 15.62943619341966
STARLINK-1272,45386,53.0397,0.0008656,15.67741464,359.5286644957241,371.2030166132927,1 45386U 20019AC  26143.61281600  .00045683  00000+0  41097-3 0  9997,2 45386  53.0397 103.1714 0008656  44.2770 315.8936 15.67741464342246
STARLINK-1274,45387,53.0216,0.000924,15.58785033,384.9174335758362,397.4271171166756,1 45387U 20019AD  26143.87777238  .00066808  00000+0  84785-3 0  9996,2 45387  53.0216 100.1881 0009240  70.7631 289.4379 15.58785033342303
STARLINK-1280,45388,53.0382,0.0005796,15.75265729,339.9790467433495,347.7712031986166,1 45388U 20019AE  26143.61636272  .00063244  00000+0  41279-3 0  9993,2 45388  53.0382 111.6996 0005796  54.7667 305.3893 15.75265729342117
STARLINK-1283,45389,53.0405,0.000459,15.68906253,358.93401291110786,365.12148415025877,1 45389U 20019AF  26143.13374143  .00048832  00000+0  41897-3 0  9999,2 45389  53.0405 104.7726 0004590  67.6078 292.5424 15.68906253342188
STARLINK-1284,45390,53.0405,0.0005228,15.67957137,361.2222657569364,368.27262573340795,1 45390U 20019AG  26143.64972367  .00041575  00000+0  37184-3 0  9990,2 45390  53.0405 125.9790 0005228   2.3120 357.7919 15.67957137341929
STARLINK-1297,45395,53.0411,0.0006962,15.66391111,364.5433812149158,373.9384302108301,1 45395U 20019AM  26143.84007831  .00041316  00000+0  39349-3 0  9990,2 45395  53.0411 123.8934 0006962  10.6043 349.5117 15.66391111341157
STARLINK-1307,45397,53.0522,0.0002676,15.5540154,399.17156004014396,402.7997464841692,1 45397U 20019AP  26143.65624196  .00026365  00000+0  38631-3 0  9990,2 45397  53.0522 129.4300 0002676  48.8623 311.2617 15.55401540341704
STARLINK-1255,45399,53.0357,0.0006294,15.63738217,372.6184673847156,381.12167028296335,1 45399U 20019AR  26143.14337950  .00082329  00000+0  86132-3 0  9996,2 45399  53.0357 100.8264 0006294  60.3156 299.8483 15.63738217342047
STARLINK-1260,45404,53.1547,0.0005991,15.3608081,453.61671739367193,461.8074317548271,1 45404U 20019AW  26143.28089801  .00033824  00000+0  95479-3 0  9997,2 45404  53.1547 141.2799 0005991  29.3233 330.8105 15.36080810341418
STARLINK-1263,45405,53.1555,0.0004487,15.33531712,462.2145491920828,468.35583626783864,1 45405U 20019AX  26143.28897943  .00027998  00000+0  85975-3 0  9997,2 45405  53.1555 142.2006 0004487  46.2848 313.8525 15.33531712341404
STARLINK-1265,45406,53.1554,0.0005524,15.36449122,452.84406811890767,460.39510719695136,1 45406U 20019AY  26143.27721690  .00037612  00000+0  10476-2 0  9999,2 45406  53.1554 141.3283 0005524  21.9365 338.1874 15.36449122341412
STARLINK-1278,45408,53.04,0.0007366,15.67224924,361.8791262351642,371.81583737375877,1 45408U 20019BA  26143.36517652  .00045223  00000+0  41573-3 0  9992,2 45408  53.0400 125.2694 0007366  30.0737 330.0700 15.67224924341638
STARLINK-1296,45412,53.1566,0.0006541,15.36675042,451.4795036950918,460.41985588959596,1 45412U 20019BE  26143.25398988  .00038098  00000+0  10531-2 0  9995,2 45412  53.1566 141.1542 0006541  21.2863 338.8411 15.36675042341410
STARLINK-1309,45414,53.0606,0.0006886,15.66464761,364.38331231372376,373.6755098950962,1 45414U 20019BG  26143.63183417  .00037713  00000+0  35876-3 0  9991,2 45414  53.0606 117.7621 0006886   9.4220 350.6923 15.66464761341743
